NORAD_CAT_ID,OBJECT_NAME,OBJECT_TYPE,EPOCH,MEAN_MOTION,ECCENTRICITY,INCLINATION,RA_OF_ASC_NODE,ARG_OF_PERICENTER,MEAN_ANOMALY,BSTAR,MEAN_MOTION_DOT,MEAN_MOTION_DDOT,TLE_LINE0,TLE_LINE1,TLE_LINE2,SEMIMAJOR_AXIS,PERIOD,APOGEE,PERIGEE,DECAYED
53143.0,STARLINK-4102,PAYLOAD,2022-10-26 22:00:00,15.08819971,0.000239,53.218,294.7785,33.9377,86.1292,0.0028169,0.00044805,0.0,0 STARLINK-4102,1 53143U 22083M   22299.91667824  .00044805  00000-0  28169-2 0  9997,2 53143  53.2180 294.7785 0002390  33.9377  86.1292 15.08819971  1306,6917.941999999999,95.439,541.46,538.153,0.0
53143.0,STARLINK-4102,PAYLOAD,2022-10-27 06:00:00,15.08855398,0.0002576,53.2179,293.2837,32.9012,98.7599,-0.00080713,-0.00013117,0.0,0 STARLINK-4102,1 53143U 22083M   22300.25001157 -.00013117  00000-0 -80713-3 0  9996,2 53143  53.2179 293.2837 0002576  32.9012  98.7599 15.08855398 16248,6917.833000000001,95.437,541.48,537.9159999999998,0.0
53143.0,STARLINK-4102,PAYLOAD,2022-10-27 14:00:01,15.08865905,0.0002561,53.2176,291.7869,31.3163,112.0133,-0.0029816999999999,-0.00047466,0.0,0 STARLINK-4102,1 53143U 22083M   22300.58335648 -.00047466  00000-0 -29817-2 0  9998,2 53143  53.2176 291.7869 0002561  31.3163 112.0133 15.08865905  1307,6917.801,95.436,541.438,537.895,0.0
53143.0,STARLINK-4102,PAYLOAD,2022-10-27 22:00:00,15.08825092,0.0002368,53.2177,290.2893,34.8642,120.0105,0.0026818,0.00042635,0.0,0 STARLINK-4102,1 53143U 22083M   22300.91667824  .00042635  00000-0  26818-2 0  9998,2 53143  53.2177 290.2893 0002368  34.8642 120.0105 15.08825092  1305,6917.926,95.438,541.429,538.153,0.0
53143.0,STARLINK-4102,PAYLOAD,2022-10-28 06:00:00,15.08864561,0.0002554,53.2177,288.7947,33.0018,133.4721,-0.002103,-0.00033626,0.0,0 STARLINK-4102,1 53143U 22083M   22301.25001157 -.00033626  00000-0 -21030-2 0  9990,2 53143  53.2177 288.7947 0002554  33.0018 133.4721 15.08864561 16393,6917.805,95.436,541.437,537.904,0.0
53143.0,STARLINK-4102,PAYLOAD,2022-10-28 14:00:01,15.08849665,0.0002514,53.2175,287.2977,31.0692,147.0779,-0.0010237,-0.00016549,0.0,0 STARLINK-4102,1 53143U 22083M   22301.58335648 -.00016549  00000-0 -10237-2 0  9993,2 53143  53.2175 287.2977 0002514  31.0692 147.0779 15.08849665  1307,6917.851,95.437,541.455,537.977,0.0
53143.0,STARLINK-4102,PAYLOAD,2022-10-28 22:00:01,15.08848046,0.0002335999999999,53.2176,285.8002,34.4527,155.293,-0.00072363,-0.00011789,0.0,0 STARLINK-4102,1 53143U 22083M   22301.91668981 -.00011789  00000-0 -72363-3 0  9999,2 53143  53.2176 285.8002 0002336  34.4527 155.2930 15.08848046  1309,6917.856,95.437,541.337,538.105,0.0
53143.0,STARLINK-4102,PAYLOAD,2022-10-29 06:00:00,15.08831908,0.0002508,53.2177,284.3059,36.4104,164.7726,0.00049675,7.625e-05,0.0,0 STARLINK-4102,1 53143U 22083M   22302.25001157  .00007625  00000-0  49675-3 0  9995,2 53143  53.2177 284.3059 0002508  36.4104 164.7726 15.08831908 16549,6917.905,95.438,541.505,538.035,0.0
53143.0,STARLINK-4102,PAYLOAD,2022-10-29 12:00:00,15.08841918,0.0002537,53.2175,283.1836,34.6496,85.2217,0.0011339,0.00017805,0.0,0 STARLINK-4102,1 53143U 22083M   22302.50001157  .00017805  00000-0  11339-2 0  9999,2 53143  53.2175 283.1836 0002537  34.6496  85.2217 15.08841918  1305,6917.875,95.437,541.495,537.984,0.0
53143.0,STARLINK-4102,PAYLOAD,2022-10-29 22:00:01,15.08856894,0.0002303,53.2178,281.3114,39.5616,184.9051,0.00094812,0.00014841,0.0,0 STARLINK-4102,1 53143U 22083M   22302.91668981  .00014841  00000-0  94812-3 0  9993,2 53143  53.2178 281.3114 0002303  39.5616 184.9051 15.08856894  1308,6917.829000000002,95.436,541.2869999999998,538.101,0.0
53143.0,STARLINK-4102,PAYLOAD,2022-10-30 00:00:00,15.08865935,0.0002313,53.2179,280.9377,39.5088,277.7974,4.2697e-06,-2.2e-06,0.0,0 STARLINK-4102,1 53143U 22083M   22303.00001157 -.00000220  00000-0  42697-5 0  9993,2 53143  53.2179 280.9377 0002313  39.5088 277.7974 15.08865935 16654,6917.801,95.436,541.266,538.066,0.0
53143.0,STARLINK-4102,PAYLOAD,2022-10-30 14:00:01,15.08877224,0.0002349,53.2179,278.3199,33.6919,213.9178,-0.0043298,-0.00068614,0.0,0 STARLINK-4102,1 53143U 22083M   22303.58334491 -.00068614  00000-0 -43298-2 0  9993,2 53143  53.2179 278.3199 0002349  33.6919 213.9178 15.08877224  1302,6917.767,95.435,541.257,538.007,0.0
53143.0,STARLINK-4102,PAYLOAD,2022-10-30 22:00:01,15.08838111,0.0002256999999999,53.2181,276.8225,38.5099,220.7737,-0.00040039,-6.655e-05,0.0,0 STARLINK-4102,1 53143U 22083M   22303.91668981 -.00006655  00000-0 -40039-3 0  9992,2 53143  53.2181 276.8225 0002257  38.5099 220.7737 15.08838111  1308,6917.886,95.438,541.313,538.19,0.0
53143.0,STARLINK-4102,PAYLOAD,2022-10-31 14:00:01,15.08848365,0.0002395,53.2181,273.8311,35.6595,246.7298,-0.0031484,-0.00050061,0.0,0 STARLINK-4102,1 53143U 22083M   22304.58334491 -.00050061  00000-0 -31484-2 0  9995,2 53143  53.2181 273.8311 0002395  35.6595 246.7298 15.08848365  1305,6917.855,95.437,541.377,538.063,0.0
53143.0,STARLINK-4102,PAYLOAD,2022-10-31 22:00:01,15.0883305,0.0002241,53.2183,272.3338,39.3702,254.6643,0.0011202999999999,0.00017583,0.0,0 STARLINK-4102,1 53143U 22083M   22304.91668981  .00017583  00000-0  11203-2 0  9993,2 53143  53.2183 272.3338 0002241  39.3702 254.6643 15.08833050 16944,6917.901999999999,95.438,541.317,538.216,0.0
53143.0,STARLINK-4102,PAYLOAD,2022-11-01 14:00:01,15.08853761,0.0002311999999999,53.2181,269.3421,35.2475,281.9029,-0.001133,-0.00018282,0.0,0 STARLINK-4102,1 53143U 22083M   22305.58334491 -.00018282  00000-0 -11330-2 0  9993,2 53143  53.2181 269.3421 0002312  35.2475 281.9029 15.08853761  1308,6917.8380000000025,95.437,541.303,538.104,0.0
53143.0,STARLINK-4102,PAYLOAD,2022-11-01 22:00:00,15.08860983,0.0002129,53.2183,267.8451,38.1247,290.6274,-0.0014029,-0.00022559,0.0,0 STARLINK-4102,1 53143U 22083M   22305.91667824 -.00022559  00000-0 -14029-2 0  9999,2 53143  53.2183 267.8451 0002129  38.1247 290.6274 15.08860983 17097,6917.816,95.436,541.154,538.2080000000002,0.0
53143.0,STARLINK-4102,PAYLOAD,2022-11-02 14:00:01,15.08831488,0.0002118,53.2179,264.8527,31.8475,320.0959,-0.0023515999999999,-0.00037512,0.0,0 STARLINK-4102,1 53143U 22083M   22306.58334491 -.00037512  00000-0 -23516-2 0  9990,2 53143  53.2179 264.8527 0002118  31.8475 320.0959 15.08831488  1307,6917.906,95.438,541.237,538.306,0.0
53143.0,STARLINK-4102,PAYLOAD,2022-11-02 20:23:43,15.08829199,0.0002364,53.2179,263.6558,42.8469,317.2707,-3.3861e-05,-8.27e-06,0.0,0 STARLINK-4102,1 53143U 22083M   22306.84981464 -.00000827  00000-0 -33861-4 0  9992,2 53143  53.2179 263.6558 0002364  42.8469 317.2707 15.08829199 16611,6917.913000000001,95.438,541.414,538.143,0.0
53143.0,STARLINK-4102,PAYLOAD,2022-11-03 02:45:17,15.08828657,0.0002204,53.219,262.4663,40.4753,319.6402,9.9443e-06,-1.3e-06,0.0,0 STARLINK-4102,1 53143U 22083M   22307.11478104 -.00000130  00000-0  99443-5 0  9990,2 53143  53.2190 262.4663 0002204  40.4753 319.6402 15.08828657 17281,6917.915,95.438,541.305,538.255,0.0
53143.0,STARLINK-4102,PAYLOAD,2022-11-03 07:31:26,15.08830862,0.000207,53.2193,261.5731,44.0801,316.0356,2.5866e-05,1.23e-06,0.0,0 STARLINK-4102,1 53143U 22083M   22307.31349997  .00000123  00000-0  25866-4 0  9997,2 53143  53.2193 261.5731 0002070  44.0801 316.0356 15.08830862 16688,6917.908,95.438,541.205,538.341,0.0
53143.0,STARLINK-4102,PAYLOAD,2022-11-03 21:49:54,15.08836592,0.0002143,53.2193,258.8975,43.6627,316.4535,-3.4209000000000004e-05,-8.33e-06,0.0,0 STARLINK-4102,1 53143U 22083M   22307.90966151 -.00000833  00000-0 -34209-4 0  9990,2 53143  53.2193 258.8975 0002143  43.6627 316.4535 15.08836592 16778,6917.891,95.438,541.238,538.273,0.0
53143.0,STARLINK-4102,PAYLOAD,2022-11-04 01:00:38,15.08860625,0.0002101,53.2195,258.3034,44.0642,316.0518,0.00016118,2.279e-05,0.0,0 STARLINK-4102,1 53143U 22083M   22308.04211509  .00002279  00000-0  16118-3 0  9998,2 53143  53.2195 258.3034 0002101  44.0642 316.0518 15.08860625 17421,6917.816999999999,95.436,541.136,538.229,0.0
53143.0,STARLINK-4102,PAYLOAD,2022-11-04 07:22:11,15.08854694,0.0001979,53.2191,257.1139,34.194,325.9179,0.00010406,1.369e-05,0.0,0 STARLINK-4102,1 53143U 22083M   22308.30707790  .00001369  00000-0  10406-3 0  9992,2 53143  53.2191 257.1139 0001979  34.1940 325.9179 15.08854694 17468,6917.835,95.437,541.07,538.331,0.0
53143.0,STARLINK-4102,PAYLOAD,2022-11-04 20:05:17,15.08837419,0.0002444,53.218,254.7331,45.4037,314.7155,8.3105e-05,1.034e-05,0.0,0 STARLINK-4102,1 53143U 22083M   22308.83701113  .00001034  00000-0  83105-4 0  9999,2 53143  53.2180 254.7331 0002444  45.4037 314.7155 15.08837419 17548,6917.888000000001,95.438,541.444,538.063,0.0
53143.0,STARLINK-4102,PAYLOAD,2022-11-05 02:26:50,15.088305599999998,0.0001866,53.2191,253.541,97.419,262.7014,3.4018e-05,2.53e-06,0.0,0 STARLINK-4102,1 53143U 22083M   22309.10197662  .00000253  00000-0  34018-4 0  9999,2 53143  53.2191 253.5410 0001866  97.4190 262.7014 15.08830560 17589,6917.909000000002,95.438,541.065,538.4830000000002,0.0
53143.0,STARLINK-4102,PAYLOAD,2022-11-05 07:13:00,15.08824521,0.0002044,53.2196,252.6535,39.3424,320.7717,2.2425e-06,-2.53e-06,0.0,0 STARLINK-4102,1 53143U 22083M   22309.30070545 -.00000253  00000-0  22425-5 0  9992,2 53143  53.2196 252.6535 0002044  39.3424 320.7717 15.08824521 16984,6917.928000000001,95.439,541.207,538.379,0.0
53143.0,STARLINK-4102,PAYLOAD,2022-11-05 13:34:32,15.08838742,0.0001936,53.2188,251.4663,31.7548,328.3561,6.752300000000001e-06,-1.81e-06,0.0,0 STARLINK-4102,1 53143U 22083M   22309.56565537 -.00000181  00000-0  67523-5 0  9998,2 53143  53.2188 251.4663 0001936  31.7548 328.3561 15.08838742 17652,6917.884,95.438,541.089,538.41,0.0
53143.0,STARLINK-4102,PAYLOAD,2022-11-06 03:53:00,15.08845485,0.0002106,53.2197,248.7895,35.6757,324.4375,7.1413e-05,8.49e-06,0.0,0 STARLINK-4102,1 53143U 22083M   22310.16180742  .00000849  00000-0  71413-4 0  9999,2 53143  53.2197 248.7895 0002106  35.6757 324.4375 15.08845485 17745,6917.864000000001,95.437,541.186,538.2719999999998,0.0
